[
    {
        "Altitude(m)": 571820.9843420935,
        "Argument of Periapsis(deg)": 0.033114955553567506,
        "Eccentricity": 0.0,
        "Inclination(deg)": 53.0,
        "Latitude(deg)": -53.08941280325048,
        "Longitude(deg)": -145.16315461609165,
        "Mean Anomaly(deg)": 272.27626433788794,
        "RAAN(deg)": 44.950716842640084,
        "Satellite Name": "Starlink Shell 1 211",
        "Satellite Number": 211,
        "Semi-Major Axis(m)": 6931778.249405717,
        "Time(s)": 950
    },
    {
        "Altitude(m)": 571806.3678410118,
        "Argument of Periapsis(deg)": 0.03346353403307874,
        "Eccentricity": 0.0,
        "Inclination(deg)": 53.0,
        "Latitude(deg)": -53.0516303702597,
        "Longitude(deg)": -144.16952374674676,
        "Mean Anomaly(deg)": 272.90309554144466,
        "RAAN(deg)": 44.95019807256261,
        "Satellite Name": "Starlink Shell 1 211",
        "Satellite Number": 211,
        "Semi-Major Axis(m)": 6931778.249405717,
        "Time(s)": 960
    },
    {
        "Altitude(m)": 571788.2854669576,
        "Argument of Periapsis(deg)": 0.03381211251258998,
        "Eccentricity": 0.0,
        "Inclination(deg)": 53.0,
        "Latitude(deg)": -53.00486688026047,
        "Longitude(deg)": -143.17791274403356,
        "Mean Anomaly(deg)": 273.5299267450014,
        "RAAN(deg)": 44.94967930248514,
        "Satellite Name": "Starlink Shell 1 211",
        "Satellite Number": 211,
        "Semi-Major Axis(m)": 6931778.249405717,
        "Time(s)": 970
    },
    {
        "Altitude(m)": 571766.7444160684,
        "Argument of Periapsis(deg)": 0.034160690992101214,
        "Eccentricity": 0.0,
        "Inclination(deg)": 53.0,
        "Latitude(deg)": -52.94915658820972,
        "Longitude(deg)": -142.1887406443691,
        "Mean Anomaly(deg)": 274.1567579485581,
        "RAAN(deg)": 44.94916053240767,
        "Satellite Name": "Starlink Shell 1 211",
        "Satellite Number": 211,
        "Semi-Major Axis(m)": 6931778.249405717,
        "Time(s)": 980
    },
    {
        "Altitude(m)": 571741.7532644977,
        "Argument of Periapsis(deg)": 0.034509269471612446,
        "Eccentricity": 0.0,
        "Inclination(deg)": 53.0,
        "Latitude(deg)": -52.884540079011316,
        "Longitude(deg)": -141.20241885045962,
        "Mean Anomaly(deg)": 274.7835891521148,
        "RAAN(deg)": 44.94864176233019,
        "Satellite Name": "Starlink Shell 1 211",
        "Satellite Number": 211,
        "Semi-Major Axis(m)": 6931778.249405717,
        "Time(s)": 990
    }
]